{
    "links": {
        "self": "http://www.neowsapp.com/rest/v1/neo/54016635?api_key=iIulBulltgU6a56xZRHN4H3l9WmuAYTsLGpBGhQ2"
    },
    "id": "54016635",
    "neo_reference_id": "54016635",
    "name": "(2020 HP2)",
    "designation": "2020 HP2",
    "nasa_jpl_url": "http://ssd.jpl.nasa.gov/sbdb.cgi?sstr=54016635",
    "absolute_magnitude_h": 22.497,
    "estimated_diameter": {
        "kilometers": {
            "estimated_diameter_min": 0.0841695444,
            "estimated_diameter_max": 0.188208823
        },
        "meters": {
            "estimated_diameter_min": 84.1695444407,
            "estimated_diameter_max": 188.2088230047
        },
        "miles": {
            "estimated_diameter_min": 0.052300514,
            "estimated_diameter_max": 0.1169475046
        },
        "feet": {
            "estimated_diameter_min": 276.146808183,
            "estimated_diameter_max": 617.4830348667
        }
    },
    "is_potentially_hazardous_asteroid": false,
    "close_approach_data": [
        {
            "close_approach_date": "2020-03-26",
            "close_approach_date_full": "2020-Mar-26 07:06",
            "epoch_date_close_approach": 1585206360000,
            "relative_velocity": {
                "kilometers_per_second": "15.7153708602",
                "kilometers_per_hour": "56575.3350968676",
                "miles_per_hour": "35153.7130772731"
            },
            "miss_distance": {
                "astronomical": "0.1285320448",
                "lunar": "49.9989654272",
                "kilometers": "19228120.128824576",
                "miles": "11947799.8212121088"
            },
            "orbiting_body": "Earth"
        }
    ],
    "orbital_data": {
        "orbit_id": "5",
        "orbit_determination_date": "2020-05-03 06:05:49",
        "first_observation_date": "2020-04-19",
        "last_observation_date": "2020-05-01",
        "data_arc_in_days": 12,
        "observations_used": 43,
        "orbit_uncertainty": "8",
        "minimum_orbit_intersection": ".111429",
        "jupiter_tisserand_invariant": "4.056",
        "epoch_osculation": "2458961.5",
        "eccentricity": ".6117141458883447",
        "semi_major_axis": "1.638610199765445",
        "inclination": "7.27048763524416",
        "ascending_node_longitude": "129.8394789222301",
        "orbital_period": "766.1466512423896",
        "perihelion_distance": ".6362491609719957",
        "perihelion_argument": "335.4421708458575",
        "aphelion_distance": "2.640971238558893",
        "perihelion_time": "2458888.044074656698",
        "mean_anomaly": "34.51575893558589",
        "mean_motion": ".4698839307281721",
        "equinox": "J2000",
        "orbit_class": {
            "orbit_class_type": "APO",
            "orbit_class_description": "Near-Earth asteroid orbits which cross the Earth’s orbit similar to that of 1862 Apollo",
            "orbit_class_range": "a (semi-major axis) > 1.0 AU; q (perihelion) < 1.017 AU"
        }
    },
    "is_sentry_object": false
}